{
  "type": "FeatureCollection",
  "features": [
    {
      "type": "Feature",
      "properties": {
        "norad_id": 29904,
        "name": "FENGYUN 1C DEB",
        "group": "fengyun-1c-debris",
        "lat": 32.665984529613795,
        "lon": 29.258444110821323,
        "alt_km": 774.48410676203,
        "timestamp": "2025-12-22T14:45:57.674648+00:00",
        "meta_object_name": "FENGYUN 1C DEB",
        "meta_object_id": "1999-025HA",
        "meta_epoch": "2025-12-22T01:18:51.748704",
        "meta_mean_motion": 14.44513555,
        "meta_eccentricity": 0.02074519,
        "meta_inclination": 99.0406,
        "meta_ra_of_asc_node": 34.5213,
        "meta_arg_of_pericenter": 290.8807,
        "meta_mean_anomaly": 67.0283,
        "meta_ephemeris_type": 0,
        "meta_classification_type": "U",
        "meta_norad_cat_id": 29904,
        "meta_element_set_no": 999,
        "meta_rev_at_epoch": 99198,
        "meta_bstar": 0.00038203711,
        "meta_mean_motion_dot": 1.655e-05,
        "meta_mean_motion_ddot": 0,
        "tle_line1": "1 29904U 99025HA  25356.05476561  .00001655  00000+0  38204-3 0  9990",
        "tle_line2": "2 29904  99.0406  34.5213 0207451 290.8807  67.0283 14.44513555991984"
      },
      "geometry": {
        "type": "Point",
        "coordinates": [
          29.258444110821323,
          32.665984529613795
        ]
      }
    },
    {
      "type": "Feature",
      "properties": {
        "norad_id": 29906,
        "name": "FENGYUN 1C DEB",
        "group": "fengyun-1c-debris",
        "lat": 48.56898561222968,
        "lon": -69.71892574929632,
        "alt_km": 696.4283958520609,
        "timestamp": "2025-12-22T14:45:57.674658+00:00",
        "meta_object_name": "FENGYUN 1C DEB",
        "meta_object_id": "1999-025HC",
        "meta_epoch": "2025-12-22T05:53:08.991744",
        "meta_mean_motion": 14.49787259,
        "meta_eccentricity": 0.00364793,
        "meta_inclination": 98.7061,
        "meta_ra_of_asc_node": 99.9009,
        "meta_arg_of_pericenter": 121.3481,
        "meta_mean_anomaly": 239.1291,
        "meta_ephemeris_type": 0,
        "meta_classification_type": "U",
        "meta_norad_cat_id": 29906,
        "meta_element_set_no": 999,
        "meta_rev_at_epoch": 98295,
        "meta_bstar": 0.0023277083,
        "meta_mean_motion_dot": 9.013e-05,
        "meta_mean_motion_ddot": 0,
        "tle_line1": "1 29906U 99025HC  25356.24524296  .00009013  00000+0  23277-2 0  9991",
        "tle_line2": "2 29906  98.7061  99.9009 0036479 121.3481 239.1291 14.49787259982950"
      },
      "geometry": {
        "type": "Point",
        "coordinates": [
          -69.71892574929632,
          48.56898561222968
        ]
      }
    },
    {
      "type": "Feature",
      "properties": {
        "norad_id": 29907,
        "name": "FENGYUN 1C DEB",
        "group": "fengyun-1c-debris",
        "lat": 5.707587749342946,
        "lon": 62.523059857471196,
        "alt_km": 904.9942794307726,
        "timestamp": "2025-12-22T14:45:57.674668+00:00",
        "meta_object_name": "FENGYUN 1C DEB",
        "meta_object_id": "1999-025HD",
        "meta_epoch": "2025-12-22T03:07:17.512320",
        "meta_mean_motion": 14.11686795,
        "meta_eccentricity": 0.00846692,
        "meta_inclination": 99.1109,
        "meta_ra_of_asc_node": 62.9495,
        "meta_arg_of_pericenter": 223.3824,
        "meta_mean_anomaly": 197.5418,
        "meta_ephemeris_type": 0,
        "meta_classification_type": "U",
        "meta_norad_cat_id": 29907,
        "meta_element_set_no": 999,
        "meta_rev_at_epoch": 96731,
        "meta_bstar": 0.0017677047,
        "meta_mean_motion_dot": 3.282e-05,
        "meta_mean_motion_ddot": 0,
        "tle_line1": "1 29907U 99025HD  25356.13006380  .00003282  00000+0  17677-2 0  9998",
        "tle_line2": "2 29907  99.1109  62.9495 0084669 223.3824 197.5418 14.11686795967319"
      },
      "geometry": {
        "type": "Point",
        "coordinates": [
          62.523059857471196,
          5.707587749342946
        ]
      }
    },
    {
      "type": "Feature",
      "properties": {
        "norad_id": 29909,
        "name": "FENGYUN 1C DEB",
        "group": "fengyun-1c-debris",
        "lat": 40.67902916321883,
        "lon": 93.24109708683068,
        "alt_km": 690.5780286676554,
        "timestamp": "2025-12-22T14:45:57.674679+00:00",
        "meta_object_name": "FENGYUN 1C DEB",
        "meta_object_id": "1999-025HF",
        "meta_epoch": "2025-12-22T06:25:45.111936",
        "meta_mean_motion": 14.55268266,
        "meta_eccentricity": 0.00380828,
        "meta_inclination": 98.6348,
        "meta_ra_of_asc_node": 100.3869,
        "meta_arg_of_pericenter": 345.1231,
        "meta_mean_anomaly": 37.052,
        "meta_ephemeris_type": 0,
        "meta_classification_type": "U",
        "meta_norad_cat_id": 29909,
        "meta_element_set_no": 999,
        "meta_rev_at_epoch": 98544,
        "meta_bstar": 0.002040365,
        "meta_mean_motion_dot": 8.883e-05,
        "meta_mean_motion_ddot": 0,
        "tle_line1": "1 29909U 99025HF  25356.26788324  .00008883  00000+0  20404-2 0  9993",
        "tle_line2": "2 29909  98.6348 100.3869 0038082 345.1231  37.0520 14.55268266985448"
      },
      "geometry": {
        "type": "Point",
        "coordinates": [
          93.24109708683068,
          40.67902916321883
        ]
      }
    },
    {
      "type": "Feature",
      "properties": {
        "norad_id": 29911,
        "name": "FENGYUN 1C DEB",
        "group": "fengyun-1c-debris",
        "lat": -23.433339491249715,
        "lon": 43.37102815253431,
        "alt_km": 851.1391648245672,
        "timestamp": "2025-12-22T14:45:57.674690+00:00",
        "meta_object_name": "FENGYUN 1C DEB",
        "meta_object_id": "1999-025HH",
        "meta_epoch": "2025-12-22T01:28:41.589408",
        "meta_mean_motion": 14.1888084,
        "meta_eccentricity": 0.00274184,
        "meta_inclination": 98.7146,
        "meta_ra_of_asc_node": 39.0151,
        "meta_arg_of_pericenter": 125.1791,
        "meta_mean_anomaly": 264.8984,
        "meta_ephemeris_type": 0,
        "meta_classification_type": "U",
        "meta_norad_cat_id": 29911,
        "meta_element_set_no": 999,
        "meta_rev_at_epoch": 97563,
        "meta_bstar": 0.00062447331,
        "meta_mean_motion_dot": 1.262e-05,
        "meta_mean_motion_ddot": 0,
        "tle_line1": "1 29911U 99025HH  25356.06159247  .00001262  00000+0  62447-3 0  9998",
        "tle_line2": "2 29911  98.7146  39.0151 0027418 125.1791 264.8984 14.18880840975639"
      },
      "geometry": {
        "type": "Point",
        "coordinates": [
          43.37102815253431,
          -23.433339491249715
        ]
      }
    },
    {
      "type": "Feature",
      "properties": {
        "norad_id": 29912,
        "name": "FENGYUN 1C DEB",
        "group": "fengyun-1c-debris",
        "lat": 70.2594520754271,
        "lon": 68.93041498098809,
        "alt_km": 755.8254210120122,
        "timestamp": "2025-12-22T14:45:57.674700+00:00",
        "meta_object_name": "FENGYUN 1C DEB",
        "meta_object_id": "1999-025HJ",
        "meta_epoch": "2025-12-21T17:25:20.214624",
        "meta_mean_motion": 14.43092322,
        "meta_eccentricity": 0.0043212,
        "meta_inclination": 98.7396,
        "meta_ra_of_asc_node": 93.4019,
        "meta_arg_of_pericenter": 192.9904,
        "meta_mean_anomaly": 302.2063,
        "meta_ephemeris_type": 0,
        "meta_classification_type": "U",
        "meta_norad_cat_id": 29912,
        "meta_element_set_no": 999,
        "meta_rev_at_epoch": 98168,
        "meta_bstar": 0.0016433221,
        "meta_mean_motion_dot": 5.532e-05,
        "meta_mean_motion_ddot": 0,
        "tle_line1": "1 29912U 99025HJ  25355.72592841  .00005532  00000+0  16433-2 0  9999",
        "tle_line2": "2 29912  98.7396  93.4019 0043212 192.9904 302.2063 14.43092322981687"
      },
      "geometry": {
        "type": "Point",
        "coordinates": [
          68.93041498098809,
          70.2594520754271
        ]
      }
    },
    {
      "type": "Feature",
      "properties": {
        "norad_id": 29913,
        "name": "FENGYUN 1C DEB",
        "group": "fengyun-1c-debris",
        "lat": -2.97881047114895,
        "lon": -4.343379668749285,
        "alt_km": 889.5074739788724,
        "timestamp": "2025-12-22T14:45:57.674710+00:00",
        "meta_object_name": "FENGYUN 1C DEB",
        "meta_object_id": "1999-025HK",
        "meta_epoch": "2025-12-22T06:18:46.390752",
        "meta_mean_motion": 14.07393238,
        "meta_eccentricity": 0.00619025,
        "meta_inclination": 98.7879,
        "meta_ra_of_asc_node": 354.8529,
        "meta_arg_of_pericenter": 244.2172,
        "meta_mean_anomaly": 128.6945,
        "meta_ephemeris_type": 0,
        "meta_classification_type": "U",
        "meta_norad_cat_id": 29913,
        "meta_element_set_no": 999,
        "meta_rev_at_epoch": 97099,
        "meta_bstar": 0.0002249849,
        "meta_mean_motion_dot": 3.42e-06,
        "meta_mean_motion_ddot": 0,
        "tle_line1": "1 29913U 99025HK  25356.26303693  .00000342  00000+0  22498-3 0  9998",
        "tle_line2": "2 29913  98.7879 354.8529 0061902 244.2172 128.6945 14.07393238970999"
      },
      "geometry": {
        "type": "Point",
        "coordinates": [
          -4.343379668749285,
          -2.97881047114895
        ]
      }
    }
  ]
}